{
  "norad_id": 47834,
  "name": "STARLINK-2424",
  "history": [
    {
      "epoch": "2026-03-28T14:25:18.611040Z",
      "apogee_km": 476.0020595329079,
      "perigee_km": 474.44908757374105,
      "latitude_deg": 5.1189656600439344e-05,
      "longitude_deg": 114.8460725530393,
      "height_km": 476.0827196936333,
      "semi_major_axis_km": 6853.362573553324,
      "eccentricity": 0.0001133,
      "inclination_deg": 53.1605,
      "raan_deg": 157.1926,
      "arg_perigee_deg": 86.9612,
      "mean_anomaly_deg": 273.1519,
      "mean_motion_rev_day": 15.30196482
    }
  ]
}